PLEIADES NEO 3          
1 48268U 21034A   26196.95444573 -.00000054  00000+0 -24203-6 0  9990
2 48268  97.8945 271.3069 0001322  94.7480 265.3884 14.81666791281916
PLEIADES NEO 4          
1 49070U 21073E   26196.92067139  .00000627  00000+0  86254-4 0  9997
2 49070  97.8944 271.2698 0001364  92.0813 268.0557 14.81674001265621
